METEOSAT-11 (MSG-4)     
1 40732U 15034A   26088.11705824  .00000045  00000+0  00000+0 0  9998
2 40732   3.0002  71.5321 0001774 285.0188 241.3418  1.00273915  6415
ELEKTRO-L 2             
1 41105U 15074A   26088.18367372 -.00000131  00000+0  00000+0 0  9993
2 41105   6.4940  71.4927 0002847 246.0030 280.7222  1.00271812 37704
INSAT-3DR               
1 41752U 16054A   26088.12985351 -.00000096  00000+0  00000+0 0  9997
2 41752   0.1124  87.6307 0012698 195.1229  24.5052  1.00271782 35010
HIMAWARI-9              
1 41836U 16064A   26087.92914050 -.00000294  00000+0  00000+0 0  9996
2 41836   0.0280 132.0980 0001030 233.0858 296.4070  1.00272924 34406
GOES 16                 
1 41866U 16071A   26088.16573365 -.00000110  00000+0  00000+0 0  9991
2 41866   0.1593  85.4870 0002177 233.9683 182.0751  1.00271594 34301
FENGYUN 4A              
1 41882U 16077A   26087.99711111 -.00000375  00000+0  00000+0 0  9991
2 41882   2.1194  81.0791 0007472 136.1368  91.8114  1.00266071 34123
CYGFM05                 
1 41884U 16078A   26088.18237490  .00032921  00000+0  50722-3 0  9990
2 41884  34.9578  68.9811 0005724 124.8039 235.3224 15.53132231516291
CYGFM04                 
1 41885U 16078B   26088.18581132  .00040247  00000+0  53568-3 0  9997
2 41885  34.9340  40.2869 0005685 174.9886 185.0896 15.57065755516507
CYGFM02                 
1 41886U 16078C   26088.18667928  .00044071  00000+0  54038-3 0  9998
2 41886  34.9423  36.7543 0006626 172.1386 187.9444 15.59214822516659
CYGFM01                 
1 41887U 16078D   26088.13887005  .00033419  00000+0  50450-3 0  9992
2 41887  34.9407  70.9281 0005274 116.1961 243.9305 15.53691808516236
CYGFM08                 
1 41888U 16078E   26088.15828229  .00038045  00000+0  52955-3 0  9990
2 41888  34.9443  52.2752 0007149 149.3448 210.7695 15.55863853516488
CYGFM07                 
1 41890U 16078G   26088.18606707  .00037862  00000+0  52562-3 0  9991
2 41890  34.9462  40.4941 0006106 172.8186 187.2626 15.55943757516511
CYGFM03                 
1 41891U 16078H   26088.15709953  .00037667  00000+0  52312-3 0  9992
2 41891  34.9418  42.6536 0004978 159.5589 200.5334 15.55941542516482
FENGYUN 3D              
1 43010U 17072A   26088.15796524  .00000109  00000+0  73369-4 0  9999
2 43010  99.0059  61.1644 0000589 315.3638  44.7489 14.19720989433630
NOAA 20 (JPSS-1)        
1 43013U 17073A   26088.14130129  .00000102  00000+0  69080-4 0  9993
2 43013  98.7714  28.3377 0001899 111.4734 248.6645 14.19541157433112
GOES 17                 
1 43226U 18022A   26088.16876697 -.00000201  00000+0  00000+0 0  9996
2 43226   0.7327  86.9204 0001516 239.4118 191.4906  1.00271483 29623
FENGYUN 2H              
1 43491U 18050A   26088.13089352 -.00000144  00000+0  00000+0 0  9998
2 43491   2.8245  80.0221 0001679 173.0326  59.6636  1.00270296 28633
