[{"OBJECT_NAME":"METEOSAT-11 (MSG-4)","OBJECT_ID":"2015-034A","EPOCH":"2026-03-29T02:48:33.831936","MEAN_MOTION":1.00273915,"ECCENTRICITY":0.0001774,"INCLINATION":3.0002,"RA_OF_ASC_NODE":71.5321,"ARG_OF_PERICENTER":285.0188,"MEAN_ANOMALY":241.3418,"EPHEMERIS_TYPE":0,"CLASSIFICATION_TYPE":"U","NORAD_CAT_ID":40732,"ELEMENT_SET_NO":999,"REV_AT_EPOCH":641,"BSTAR":0,"MEAN_MOTION_DOT":4.5e-7,"MEAN_MOTION_DDOT":0},{"OBJECT_NAME":"ELEKTRO-L 2","OBJECT_ID":"2015-074A","EPOCH":"2026-03-29T04:24:29.409408","MEAN_MOTION":1.00271812,"ECCENTRICITY":0.0002847,"INCLINATION":6.494,"RA_OF_ASC_NODE":71.4927,"ARG_OF_PERICENTER":246.003,"MEAN_ANOMALY":280.7222,"EPHEMERIS_TYPE":0,"CLASSIFICATION_TYPE":"U","NORAD_CAT_ID":41105,"ELEMENT_SET_NO":999,"REV_AT_EPOCH":3770,"BSTAR":0,"MEAN_MOTION_DOT":-1.31e-6,"MEAN_MOTION_DDOT":0},{"OBJECT_NAME":"INSAT-3DR","OBJECT_ID":"2016-054A","EPOCH":"2026-03-29T03:06:59.343264","MEAN_MOTION":1.00271782,"ECCENTRICITY":0.0012698,"INCLINATION":0.1124,"RA_OF_ASC_NODE":87.6307,"ARG_OF_PERICENTER":195.1229,"MEAN_ANOMALY":24.5052,"EPHEMERIS_TYPE":0,"CLASSIFICATION_TYPE":"U","NORAD_CAT_ID":41752,"ELEMENT_SET_NO":999,"REV_AT_EPOCH":3501,"BSTAR":0,"MEAN_MOTION_DOT":-9.6e-7,"MEAN_MOTION_DDOT":0},{"OBJECT_NAME":"HIMAWARI-9","OBJECT_ID":"2016-064A","EPOCH":"2026-03-28T22:17:57.739200","MEAN_MOTION":1.00272924,"ECCENTRICITY":0.000103,"INCLINATION":0.028,"RA_OF_ASC_NODE":132.098,"ARG_OF_PERICENTER":233.0858,"MEAN_ANOMALY":296.407,"EPHEMERIS_TYPE":0,"CLASSIFICATION_TYPE":"U","NORAD_CAT_ID":41836,"ELEMENT_SET_NO":999,"REV_AT_EPOCH":3440,"BSTAR":0,"MEAN_MOTION_DOT":-2.94e-6,"MEAN_MOTION_DDOT":0},{"OBJECT_NAME":"GOES 16","OBJECT_ID":"2016-071A","EPOCH":"2026-03-29T03:58:39.387360","MEAN_MOTION":1.00271594,"ECCENTRICITY":0.0002177,"INCLINATION":0.1593,"RA_OF_ASC_NODE":85.487,"ARG_OF_PERICENTER":233.9683,"MEAN_ANOMALY":182.0751,"EPHEMERIS_TYPE":0,"CLASSIFICATION_TYPE":"U","NORAD_CAT_ID":41866,"ELEMENT_SET_NO":999,"REV_AT_EPOCH":3430,"BSTAR":0,"MEAN_MOTION_DOT":-1.1e-6,"MEAN_MOTION_DDOT":0},{"OBJECT_NAME":"FENGYUN 4A","OBJECT_ID":"2016-077A","EPOCH":"2026-03-28T23:55:50.399904","MEAN_MOTION":1.00266071,"ECCENTRICITY":0.0007472,"INCLINATION":2.1194,"RA_OF_ASC_NODE":81.0791,"ARG_OF_PERICENTER":136.1368,"MEAN_ANOMALY":91.8114,"EPHEMERIS_TYPE":0,"CLASSIFICATION_TYPE":"U","NORAD_CAT_ID":41882,"ELEMENT_SET_NO":999,"REV_AT_EPOCH":3412,"BSTAR":0,"MEAN_MOTION_DOT":-3.75e-6,"MEAN_MOTION_DDOT":0},{"OBJECT_NAME":"CYGFM05","OBJECT_ID":"2016-078A","EPOCH":"2026-03-29T04:22:37.191360","MEAN_MOTION":15.53132231,"ECCENTRICITY":0.0005724,"INCLINATION":34.9578,"RA_OF_ASC_NODE":68.9811,"ARG_OF_PERICENTER":124.8039,"MEAN_ANOMALY":235.3224,"EPHEMERIS_TYPE":0,"CLASSIFICATION_TYPE":"U","NORAD_CAT_ID":41884,"ELEMENT_SET_NO":999,"REV_AT_EPOCH":51629,"BSTAR":0.00050722,"MEAN_MOTION_DOT":0.00032921,"MEAN_MOTION_DDOT":0},{"OBJECT_NAME":"CYGFM04","OBJECT_ID":"2016-078B","EPOCH":"2026-03-29T04:27:34.098048","MEAN_MOTION":15.57065755,"ECCENTRICITY":0.0005685,"INCLINATION":34.934,"RA_OF_ASC_NODE":40.2869,"ARG_OF_PERICENTER":174.9886,"MEAN_ANOMALY":185.0896,"EPHEMERIS_TYPE":0,"CLASSIFICATION_TYPE":"U","NORAD_CAT_ID":41885,"ELEMENT_SET_NO":999,"REV_AT_EPOCH":51650,"BSTAR":0.00053568,"MEAN_MOTION_DOT":0.00040247,"MEAN_MOTION_DDOT":0},{"OBJECT_NAME":"CYGFM02","OBJECT_ID":"2016-078C","EPOCH":"2026-03-29T04:28:49.089792","MEAN_MOTION":15.59214822,"ECCENTRICITY":0.0006626,"INCLINATION":34.9423,"RA_OF_ASC_NODE":36.7543,"ARG_OF_PERICENTER":172.1386,"MEAN_ANOMALY":187.9444,"EPHEMERIS_TYPE":0,"CLASSIFICATION_TYPE":"U","NORAD_CAT_ID":41886,"ELEMENT_SET_NO":999,"REV_AT_EPOCH":51665,"BSTAR":0.00054038,"MEAN_MOTION_DOT":0.00044071,"MEAN_MOTION_DDOT":0},{"OBJECT_NAME":"CYGFM01","OBJECT_ID":"2016-078D","EPOCH":"2026-03-29T03:19:58.372320","MEAN_MOTION":15.53691808,"ECCENTRICITY":0.0005274,"INCLINATION":34.9407,"RA_OF_ASC_NODE":70.9281,"ARG_OF_PERICENTER":116.1961,"MEAN_ANOMALY":243.9305,"EPHEMERIS_TYPE":0,"CLASSIFICATION_TYPE":"U","NORAD_CAT_ID":41887,"ELEMENT_SET_NO":999,"REV_AT_EPOCH":51623,"BSTAR":0.0005045,"MEAN_MOTION_DOT":0.00033419,"MEAN_MOTION_DDOT":0},{"OBJECT_NAME":"CYGFM08","OBJECT_ID":"2016-078E","EPOCH":"2026-03-29T03:47:55.589856","MEAN_MOTION":15.55863853,"ECCENTRICITY":0.0007149,"INCLINATION":34.9443,"RA_OF_ASC_NODE":52.2752,"ARG_OF_PERICENTER":149.3448,"MEAN_ANOMALY":210.7695,"EPHEMERIS_TYPE":0,"CLASSIFICATION_TYPE":"U","NORAD_CAT_ID":41888,"ELEMENT_SET_NO":999,"REV_AT_EPOCH":51648,"BSTAR":0.00052955,"MEAN_MOTION_DOT":0.00038045,"MEAN_MOTION_DDOT":0},{"OBJECT_NAME":"CYGFM07","OBJECT_ID":"2016-078G","EPOCH":"2026-03-29T04:27:56.194848","MEAN_MOTION":15.55943757,"ECCENTRICITY":0.0006106,"INCLINATION":34.9462,"RA_OF_ASC_NODE":40.4941,"ARG_OF_PERICENTER":172.8186,"MEAN_ANOMALY":187.2626,"EPHEMERIS_TYPE":0,"CLASSIFICATION_TYPE":"U","NORAD_CAT_ID":41890,"ELEMENT_SET_NO":999,"REV_AT_EPOCH":51651,"BSTAR":0.00052562,"MEAN_MOTION_DOT":0.00037862,"MEAN_MOTION_DDOT":0},{"OBJECT_NAME":"CYGFM03","OBJECT_ID":"2016-078H","EPOCH":"2026-03-29T03:46:13.399392","MEAN_MOTION":15.55941542,"ECCENTRICITY":0.0004978,"INCLINATION":34.9418,"RA_OF_ASC_NODE":42.6536,"ARG_OF_PERICENTER":159.5589,"MEAN_ANOMALY":200.5334,"EPHEMERIS_TYPE":0,"CLASSIFICATION_TYPE":"U","NORAD_CAT_ID":41891,"ELEMENT_SET_NO":999,"REV_AT_EPOCH":51648,"BSTAR":0.00052312,"MEAN_MOTION_DOT":0.00037667,"MEAN_MOTION_DDOT":0},{"OBJECT_NAME":"FENGYUN 3D","OBJECT_ID":"2017-072A","EPOCH":"2026-03-29T03:47:28.196736","MEAN_MOTION":14.19720989,"ECCENTRICITY":5.89e-5,"INCLINATION":99.0059,"RA_OF_ASC_NODE":61.1644,"ARG_OF_PERICENTER":315.3638,"MEAN_ANOMALY":44.7489,"EPHEMERIS_TYPE":0,"CLASSIFICATION_TYPE":"U","NORAD_CAT_ID":43010,"ELEMENT_SET_NO":999,"REV_AT_EPOCH":43363,"BSTAR":7.3369e-5,"MEAN_MOTION_DOT":1.09e-6,"MEAN_MOTION_DDOT":0},{"OBJECT_NAME":"NOAA 20 (JPSS-1)","OBJECT_ID":"2017-073A","EPOCH":"2026-03-29T03:23:28.431456","MEAN_MOTION":14.19541157,"ECCENTRICITY":0.0001899,"INCLINATION":98.7714,"RA_OF_ASC_NODE":28.3377,"ARG_OF_PERICENTER":111.4734,"MEAN_ANOMALY":248.6645,"EPHEMERIS_TYPE":0,"CLASSIFICATION_TYPE":"U","NORAD_CAT_ID":43013,"ELEMENT_SET_NO":999,"REV_AT_EPOCH":43311,"BSTAR":6.908e-5,"MEAN_MOTION_DOT":1.02e-6,"MEAN_MOTION_DDOT":0},{"OBJECT_NAME":"GOES 17","OBJECT_ID":"2018-022A","EPOCH":"2026-03-29T04:03:01.466208","MEAN_MOTION":1.00271483,"ECCENTRICITY":0.0001516,"INCLINATION":0.7327,"RA_OF_ASC_NODE":86.9204,"ARG_OF_PERICENTER":239.4118,"MEAN_ANOMALY":191.4906,"EPHEMERIS_TYPE":0,"CLASSIFICATION_TYPE":"U","NORAD_CAT_ID":43226,"ELEMENT_SET_NO":999,"REV_AT_EPOCH":2962,"BSTAR":0,"MEAN_MOTION_DOT":-2.01e-6,"MEAN_MOTION_DDOT":0},{"OBJECT_NAME":"FENGYUN 2H","OBJECT_ID":"2018-050A","EPOCH":"2026-03-29T03:08:29.200128","MEAN_MOTION":1.00270296,"ECCENTRICITY":0.0001679,"INCLINATION":2.8245,"RA_OF_ASC_NODE":80.0221,"ARG_OF_PERICENTER":173.0326,"MEAN_ANOMALY":59.6636,"EPHEMERIS_TYPE":0,"CLASSIFICATION_TYPE":"U","NORAD_CAT_ID":43491,"ELEMENT_SET_NO":999,"REV_AT_EPOCH":2863,"BSTAR":0,"MEAN_MOTION_DOT":-1.44e-6,"MEAN_MOTION_DDOT":0}]
